NORAD_CAT_ID,OBJECT_NAME,OBJECT_TYPE,EPOCH,MEAN_MOTION,ECCENTRICITY,INCLINATION,RA_OF_ASC_NODE,ARG_OF_PERICENTER,MEAN_ANOMALY,BSTAR,MEAN_MOTION_DOT,MEAN_MOTION_DDOT,TLE_LINE0,TLE_LINE1,TLE_LINE2,SEMIMAJOR_AXIS,PERIOD,APOGEE,PERIGEE,DECAYED
53008.0,STARLINK-4275,PAYLOAD,2024-02-07 08:37:08,15.08829746,0.0001435,53.216,271.8554,87.4526,272.663,0.00021475,3.131e-05,0.0,0 STARLINK-4275,1 53008U 22076Y   24038.35912210  .00003131  00000-0  21475-3 0  9993,2 53008  53.2160 271.8554 0001435  87.4526 272.6630 15.08829746 88385,6917.912,95.438,540.769,538.784,0.0
53008.0,STARLINK-4275,PAYLOAD,2024-02-07 21:20:13,15.08828978,0.0001499,53.2161,269.4764,86.0809,274.0354,0.00018417,2.643e-05,0.0,0 STARLINK-4275,1 53008U 22076Y   24038.88904847  .00002643  00000-0  18417-3 0  9997,2 53008  53.2161 269.4764 0001499  86.0809 274.0354 15.08828978 87992,6917.914,95.438,540.816,538.742,0.0
53008.0,STARLINK-4275,PAYLOAD,2024-02-08 08:27:55,15.0883285,0.0001452,53.2156,267.3926,83.2967,276.819,0.00013025,1.785e-05,0.0,0 STARLINK-4275,1 53008U 22076Y   24039.35272856  .00001785  00000-0  13025-3 0  9994,2 53008  53.2156 267.3926 0001452  83.2967 276.8190 15.08832850 88067,6917.902,95.438,540.772,538.763,0.0
53008.0,STARLINK-4275,PAYLOAD,2024-02-08 19:35:37,15.08842774,0.0001425,53.2163,265.3105,87.7345,272.381,7.6764e-05,9.34e-06,0.0,0 STARLINK-4275,1 53008U 22076Y   24039.81640689  .00000934  00000-0  76764-4 0  9993,2 53008  53.2163 265.3105 0001425  87.7345 272.3810 15.08842774 88607,6917.872,95.437,540.723,538.751,0.0
53008.0,STARLINK-4275,PAYLOAD,2024-02-08 21:11:00,15.08840312,0.0001471,53.2154,265.0136,87.3046,272.8115,8.8567e-05,1.122e-05,0.0,0 STARLINK-4275,1 53008U 22076Y   24039.88264751  .00001122  00000-0  88567-4 0  9996,2 53008  53.2154 265.0136 0001471  87.3046 272.8115 15.08840312 88141,6917.879,95.438,540.762,538.727,0.0
53008.0,STARLINK-4275,PAYLOAD,2024-02-09 00:21:46,15.08843293,0.0001495,53.2159,264.4186,91.2697,268.8467,0.00013216,1.816e-05,0.0,0 STARLINK-4275,1 53008U 22076Y   24040.01512617  .00001816  00000-0  13216-3 0  9998,2 53008  53.2159 264.4186 0001495  91.2697 268.8467 15.08843293 88164,6917.87,95.437,540.77,538.701,0.0
53008.0,STARLINK-4275,PAYLOAD,2024-02-10 00:12:33,15.08844301,0.0001409,53.215,259.956,97.8757,262.2395,0.00016514,2.342e-05,0.0,0 STARLINK-4275,1 53008U 22076Y   24041.00872607  .00002342  00000-0  16514-3 0  9995,2 53008  53.2150 259.9560 0001409  97.8757 262.2395 15.08844301 88781,6917.867,95.437,540.707,538.758,0.0
53008.0,STARLINK-4275,PAYLOAD,2024-02-10 19:17:11,15.08841566,0.0001472,53.2161,256.3862,101.9016,258.2142,8.3044e-05,1.034e-05,0.0,0 STARLINK-4275,1 53008U 22076Y   24041.80360824  .00001034  00000-0  83044-4 0  9996,2 53008  53.2161 256.3862 0001472 101.9016 258.2142 15.08841566 88903,6917.876,95.437,540.759,538.722,0.0
53008.0,STARLINK-4275,PAYLOAD,2024-02-10 20:52:34,15.0884143,0.0001382,53.216,256.088,92.2039,267.9111,6.683e-05,7.76e-06,0.0,0 STARLINK-4275,1 53008U 22076Y   24041.86984860  .00000776  00000-0  66830-4 0  9990,2 53008  53.2160 256.0880 0001382  92.2039 267.9111 15.08841430 88448,6917.876,95.437,540.697,538.785,0.0
53008.0,STARLINK-4275,PAYLOAD,2024-02-11 14:21:51,15.0882211,0.000133,53.2161,252.8111,118.7171,241.3955,-0.00016309,-2.881e-05,0.0,0 STARLINK-4275,1 53008U 22076Y   24042.59851146 -.00002881  00000-0 -16309-3 0  9997,2 53008  53.2161 252.8111 0001330 118.7171 241.3955 15.08822110 88552,6917.935,95.439,540.72,538.88,0.0
53008.0,STARLINK-4275,PAYLOAD,2024-02-11 19:07:59,15.08836195,0.0001814,53.2167,251.926,121.2978,238.8192,4.3126e-05,3.98e-06,0.0,0 STARLINK-4275,1 53008U 22076Y   24042.79721887  .00000398  00000-0  43126-4 0  9994,2 53008  53.2167 251.9260 0001814 121.2978 238.8192 15.08836195 89052,6917.892,95.438,541.012,538.502,0.0
53008.0,STARLINK-4275,PAYLOAD,2024-02-11 23:54:09,15.08833334,0.000139,53.2163,251.0358,99.239,260.8759,1.3042e-05,-8e-07,0.0,0 STARLINK-4275,1 53008U 22076Y   24042.99594314 -.00000080  00000-0  13042-4 0  9992,2 53008  53.2163 251.0358 0001390  99.2390 260.8759 15.08833334 88615,6917.901,95.438,540.727,538.804,0.0
53008.0,STARLINK-4275,PAYLOAD,2024-02-12 18:58:45,15.0885065,0.0001542,53.2167,247.4715,113.3519,246.7636,0.00019441,2.808e-05,0.0,0 STARLINK-4275,1 53008U 22076Y   24043.79080978  .00002808  00000-0  19441-3 0  9994,2 53008  53.2167 247.4715 0001542 113.3519 246.7636 15.08850650 89208,6917.848,95.437,540.78,538.646,0.0
53008.0,STARLINK-4275,PAYLOAD,2024-02-12 20:34:09,15.08851294,0.0001313,53.2154,247.1732,95.8858,264.2284,0.00029613,4.43e-05,0.0,0 STARLINK-4275,1 53008U 22076Y   24043.85705434  .00004430  00000-0  29613-3 0  9997,2 53008  53.2154 247.1732 0001313  95.8858 264.2284 15.08851294 88743,6917.846,95.437,540.619,538.803,0.0
53008.0,STARLINK-4275,PAYLOAD,2024-02-13 20:24:56,15.08848781,0.0001498,53.216,242.7143,107.1037,253.012,0.00014027,1.946e-05,0.0,0 STARLINK-4275,1 53008U 22076Y   24044.85065330  .00001946  00000-0  14027-3 0  9994,2 53008  53.2160 242.7143 0001498 107.1037 253.0120 15.08848781 89368,6917.854,95.437,540.755,538.682,0.0
53008.0,STARLINK-4275,PAYLOAD,2024-02-14 12:18:48,15.08828518,0.0001222,53.2163,239.7416,103.7317,256.3811,0.0006093,9.419e-05,0.0,0 STARLINK-4275,1 53008U 22076Y   24045.51306423  .00009419  00000-0  60930-3 0  9996,2 53008  53.2163 239.7416 0001222 103.7317 256.3811 15.08828518 89468,6917.915,95.438,540.626,538.935,0.0
53008.0,STARLINK-4275,PAYLOAD,2024-02-14 17:04:57,15.08844023,0.0001404,53.2161,238.8479,94.232,265.8833,-0.00017997,-3.151e-05,0.0,0 STARLINK-4275,1 53008U 22076Y   24045.71177215 -.00003151  00000-0 -17997-3 0  9997,2 53008  53.2161 238.8479 0001404  94.2320 265.8833 15.08844023 89496,6917.868,95.437,540.704,538.762,0.0
53008.0,STARLINK-4275,PAYLOAD,2024-02-14 21:51:06,15.08847709,0.0001405,53.2167,237.9558,90.1913,269.924,-5.8646e-05,-1.221e-05,0.0,0 STARLINK-4275,1 53008U 22076Y   24045.91049499 -.00001221  00000-0 -58646-4 0  9994,2 53008  53.2167 237.9558 0001405  90.1913 269.9240 15.08847709 89057,6917.857,95.437,540.694,538.75,0.0
53008.0,STARLINK-4275,PAYLOAD,2024-02-15 05:48:02,15.08844399,0.0001425,53.2166,236.4686,87.5837,272.5319,-5.2032e-05,-1.116e-05,0.0,0 STARLINK-4275,1 53008U 22076Y   24046.24169572 -.00001116  00000-0 -52032-4 0  9992,2 53008  53.2166 236.4686 0001425  87.5837 272.5319 15.08844399 89104,6917.867,95.437,540.718,538.746,0.0
53008.0,STARLINK-4275,PAYLOAD,2024-02-15 18:31:07,15.0884355,0.0001538,53.2149,234.0891,113.4423,246.6731,1.261e-05,-8.7e-07,0.0,0 STARLINK-4275,1 53008U 22076Y   24046.77161393 -.00000087  00000-0  12610-4 0  9996,2 53008  53.2149 234.0891 0001538 113.4423 246.6731 15.08843550 89650,6917.87,95.437,540.799,538.671,0.0
53008.0,STARLINK-4275,PAYLOAD,2024-02-15 21:41:53,15.08843218,0.0001268,53.215,233.4941,87.6178,272.4959,3.6352e-05,2.91e-06,0.0,0 STARLINK-4275,1 53008U 22076Y   24046.90409388  .00000291  00000-0  36352-4 0  9995,2 53008  53.2150 233.4941 0001268  87.6178 272.4959 15.08843218 89201,6917.871,95.437,540.613,538.858,0.0
53008.0,STARLINK-4275,PAYLOAD,2024-02-16 05:38:49,15.08835462,0.0001379,53.2154,232.0075,88.6084,271.5066,0.00022756,3.335e-05,0.0,0 STARLINK-4275,1 53008U 22076Y   24047.23529477  .00003335  00000-0  22756-3 0  9998,2 53008  53.2154 232.0075 0001379  88.6084 271.5066 15.08835462 89254,6917.894,95.438,540.713,538.805,0.0
53008.0,STARLINK-4275,PAYLOAD,2024-02-16 18:21:53,15.08856412,0.0001297,53.2152,229.6273,83.9989,276.115,0.00021102,3.074e-05,0.0,0 STARLINK-4275,1 53008U 22076Y   24047.76519808  .00003074  00000-0  21102-3 0  9997,2 53008  53.2152 229.6273 0001297  83.9989 276.1150 15.08856412 89809,6917.83,95.437,540.592,538.798,0.0
53008.0,STARLINK-4275,PAYLOAD,2024-02-17 05:29:35,15.08849093,0.0001292,53.2146,227.5479,77.3807,282.7329,0.0001558,2.193e-05,0.0,0 STARLINK-4275,1 53008U 22076Y   24048.22888211  .00002193  00000-0  15580-3 0  9990,2 53008  53.2146 227.5479 0001292  77.3807 282.7329 15.08849093 89873,6917.853,95.437,540.611,538.824,0.0
53008.0,STARLINK-4275,PAYLOAD,2024-02-17 15:01:54,15.08840572,0.000159,53.2171,225.7605,99.3271,260.7901,9.8079e-05,1.273e-05,0.0,0 STARLINK-4275,1 53008U 22076Y   24048.62632949  .00001273  00000-0  98079-4 0  9992,2 53008  53.2171 225.7605 0001590  99.3271 260.7901 15.08840572 89462,6917.879,95.438,540.844,538.644,0.0
53008.0,STARLINK-4275,PAYLOAD,2024-02-17 18:12:41,15.08835649,0.0001271,53.217,225.1662,93.9926,266.1211,5.87e-05,6.46e-06,0.0,0 STARLINK-4275,1 53008U 22076Y   24048.75881401  .00000646  00000-0  58700-4 0  9995,2 53008  53.2170 225.1662 0001271  93.9926 266.1211 15.08835649 89958,6917.894,95.438,540.638,538.879,0.0
53008.0,STARLINK-4275,PAYLOAD,2024-02-17 21:23:27,15.08839897,0.0001415,53.2187,224.5706,99.8477,260.2675,7.6124e-06,-1.67e-06,0.0,0 STARLINK-4275,1 53008U 22076Y   24048.89129212 -.00000167  00000-0  76124-5 0  9995,2 53008  53.2187 224.5706 0001415  99.8477 260.2675 15.08839897 89503,6917.881,95.438,540.725,538.767,0.0
53008.0,STARLINK-4275,PAYLOAD,2024-02-18 14:52:42,15.08837724,0.0001206,53.2185,221.2993,105.8339,254.2786,1.699e-05,-1.7e-07,0.0,0 STARLINK-4275,1 53008U 22076Y   24049.61993230 -.00000017  00000-0  16990-4 0  9993,2 53008  53.2185 221.2993 0001206 105.8339 254.2786 15.08837724 89611,6917.887,95.438,540.587,538.918,0.0
53008.0,STARLINK-4275,PAYLOAD,2024-02-18 18:03:28,15.08844743,0.0001417,53.2167,220.707,87.3335,272.782,-5.2585e-05,-1.125e-05,0.0,0 STARLINK-4275,1 53008U 22076Y   24049.75241002 -.00001125  00000-0 -52585-4 0  9993,2 53008  53.2167 220.7070 0001417  87.3335 272.7820 15.08844743 90104,6917.866,95.437,540.711,538.751,0.0
53008.0,STARLINK-4275,PAYLOAD,2024-02-18 21:14:14,15.08848109,0.0001333,53.2166,220.1106,96.9719,263.1425,-6.1554e-05,-1.268e-05,0.0,0 STARLINK-4275,1 53008U 22076Y   24049.88488696 -.00001268  00000-0 -61554-4 0  9993,2 53008  53.2166 220.1106 0001333  96.9719 263.1425 15.08848109 89659,6917.856,95.437,540.643,538.798,0.0
